[{"OBJECT_NAME":"LYRA-3","OBJECT_ID":"2025-135BB","EPOCH":"2026-03-09T20:51:33.773760","MEAN_MOTION":14.74138825,"ECCENTRICITY":0.00196485,"INCLINATION":97.7638,"RA_OF_ASC_NODE":177.9553,"ARG_OF_PERICENTER":304.2779,"MEAN_ANOMALY":55.657,"EPHEMERIS_TYPE":0,"CLASSIFICATION_TYPE":"U","NORAD_CAT_ID":64577,"ELEMENT_SET_NO":999,"REV_AT_EPOCH":3863,"BSTAR":0.00040041163,"MEAN_MOTION_DOT":2.6e-5,"MEAN_MOTION_DDOT":0},{"OBJECT_NAME":"CZ-2C DEB","OBJECT_ID":"2004-046D","EPOCH":"2026-03-09T23:02:02.478624","MEAN_MOTION":14.51071818,"ECCENTRICITY":0.01041945,"INCLINATION":98.6274,"RA_OF_ASC_NODE":154.2134,"ARG_OF_PERICENTER":141.0148,"MEAN_ANOMALY":319.3332,"EPHEMERIS_TYPE":0,"CLASSIFICATION_TYPE":"U","NORAD_CAT_ID":28482,"ELEMENT_SET_NO":999,"REV_AT_EPOCH":11423,"BSTAR":0.0014344622,"MEAN_MOTION_DOT":6.049e-5,"MEAN_MOTION_DDOT":0}]
